[{"OBJECT_NAME":"STARLINK-34094","OBJECT_ID":"2025-092U","EPOCH":"2026-03-09T07:28:49.440576","MEAN_MOTION":15.27593229,"ECCENTRICITY":4.659e-5,"INCLINATION":42.9929,"RA_OF_ASC_NODE":171.4607,"ARG_OF_PERICENTER":162.5456,"MEAN_ANOMALY":197.5411,"EPHEMERIS_TYPE":0,"CLASSIFICATION_TYPE":"U","NORAD_CAT_ID":63822,"ELEMENT_SET_NO":999,"REV_AT_EPOCH":4864,"BSTAR":0.0012426135,"MEAN_MOTION_DOT":0.00034104,"MEAN_MOTION_DDOT":0},{"OBJECT_NAME":"CZ-6A DEB","OBJECT_ID":"2022-151AJB","EPOCH":"2026-02-27T14:06:27.470880","MEAN_MOTION":15.13235807,"ECCENTRICITY":0.00651829,"INCLINATION":98.7617,"RA_OF_ASC_NODE":191.4844,"ARG_OF_PERICENTER":85.1472,"MEAN_ANOMALY":275.7194,"EPHEMERIS_TYPE":0,"CLASSIFICATION_TYPE":"U","NORAD_CAT_ID":58433,"ELEMENT_SET_NO":999,"REV_AT_EPOCH":15167,"BSTAR":0.0027921214,"MEAN_MOTION_DOT":0.00052525,"MEAN_MOTION_DDOT":0}]
